SHIYAN-1 (SY-1)         
1 28220U 04012A   26068.73650539  .00016393  00000+0  54854-3 0  9991
2 28220  97.8764 140.5238 0005873  23.6952 336.4557 15.31043463195862
STARLINK-33785          
1 63516U 25071Z   26068.47656263  .00014022  00000+0  48481-3 0  9993
2 63516  53.1578 141.1297 0001157  97.0782 263.0351 15.30190164 52719
